#cP2023  9 11  0  0  0.00000000      96 ORBIT IGS20 HLM  IGS
## 2279  86400.00000000   900.00000000 60198 0.0000000000000
+   32   G01G02G03G04G05G06G07G08G09G10G11G12G13G14G15G16G17
+        G18G19G20G21G22G23G24G25G26G27G28G29G30G31G32  0  0
+          0  0  0  0  0  0  0  0  0  0  0  0  0  0  0  0  0
+          0  0  0  0  0  0  0  0  0  0  0  0  0  0  0  0  0
+          0  0  0  0  0  0  0  0  0  0  0  0  0  0  0  0  0
++         2  2  2  2  2  2  2  2  2  2  2  2  2  2  2  2  2
++         2  2  2  2  1  2  2  2  2  2  2  2  2  2  2  0  0
++         0  0  0  0  0  0  0  0  0  0  0  0  0  0  0  0  0
++         0  0  0  0  0  0  0  0  0  0  0  0  0  0  0  0  0
++         0  0  0  0  0  0  0  0  0  0  0  0  0  0  0  0  0
%c G  cc GPS ccc cccc cccc cccc cccc ccccc ccccc ccccc ccccc
%c cc cc ccc ccc cccc cccc cccc cccc ccccc ccccc ccccc ccccc
%f  1.2500000  1.025000000  0.00000000000  0.000000000000000
%f  0.0000000  0.000000000  0.00000000000  0.000000000000000
%i    0    0    0    0      0      0      0      0         0
%i    0    0    0    0      0      0      0      0         0
/* RAPID ORBIT COMBINATION FROM WEIGHTED AVERAGE OF:        
/* cod emr esa gfz grg jgx jpl ngs sio usn whu              
/* REFERENCED TO IGS TIME (IGST) AND TO WEIGHTED MEAN POLE: 
/* PCV:IGS20      OL/AL:FES2014b NONE     Y  ORB:CMB CLK:CMB
*  2023  9 11  3 45  0.00000000
PG01   9906.169414 -19271.465684 -15463.272723    165.795157  8  8  4  96       
PG02  15216.366271 -20056.681509  -7684.524071   -555.353525  3  8  4  49       
PG03   -449.460427 -15928.662628 -21414.382186   -141.668949  8  6  5  66       
PG04    948.688044 -26175.687215  -3976.174914    152.443912  8  8  4  97       
PG05 -15425.169205   8556.048037  19705.122186   -142.251945  5  5  4 102       
PG06 -21004.372798   1915.543145 -16138.130967    552.344515  4  7  6  92       
PG07  -7213.049441 -14014.006811  21819.344467     70.620881  2  5  4  93       
PG08   6981.042313 -21315.036771  13834.420243   -141.650902  5  5  5  88       
PG09  -6508.851517 -25289.807793   4618.629949    -62.981459  5  1  6  67       
PG10  24285.738991  11182.366955    538.254466    -52.907995  3  5  3  84       
PG11 -23407.190217  11713.667841  -4329.544452   -362.936570  8  9  5 111       
PG12  -4595.091369  14756.701582 -21879.937897   -423.368117  6  5  4 100       
PG13 -12988.345526  13892.931770  18254.629131    571.078151  7  6  5  86       
PG14 -22676.195712 -13600.075647   3364.094469    181.297497  5  5  6  95       
PG15  -3821.364859  22714.480716  12532.637559     76.360025  5  6  2  83       
PG16  19893.116628  -2698.463028  17306.208162   -455.899690  5  6  2  75       
PG17 -12775.979993 -14354.318612 -17850.321252    723.659545  5  4  3  66       
PG18   8672.736707  12140.948773  21977.019790   -413.269333  4  6  6 105       
PG19 -14696.251703  -5971.849192 -21555.885652    369.866655  4  3  5  84       
PG20 -23376.076441   3002.602429  12096.761195    412.513845  4  3  5  90       
PG21  16547.993943 -19292.182627  -5310.459655    149.144971  5  7  8  93       
PG22 -23888.069754 -10504.640320  -3602.438481    124.163012  2  4  5  80       
PG23  17510.572064  16049.380229  12068.054016     66.758006  3  7  3  93       
PG24 -12071.555819  21044.191232 -10675.366136   -316.033703  5  4  3  74       
PG25  10533.722747  17797.211650 -17127.975210    467.115118  5  6  5  94       
PG26  25241.267009   2591.288264   8311.314160    229.074024  4  6  2  89       
PG27  13139.121436  -9978.025887  20467.137525    -37.461024  5  5  4  81       
PG28  20166.028618   -423.557519 -17302.806441     -8.180708  6  6  4  78       
PG29   4237.679679  25633.743013   5194.245251   -609.146411  5  5  4  79       
PG30 -16219.974547  -6640.018132  20146.567497   -488.847469  6  1  2 105       
PG31  23706.062667  -8239.322124  -9499.674649   -223.198987  5  7  3  87       
PG32  14902.623238   9724.475035 -19600.684874   -555.947391  3  5  4  89       
*  2023  9 11  4  0  0.00000000
PG01  11268.783707 -20113.557930 -13218.604139    165.794351  8  8  3 105       
PG02  15960.110997 -20405.720820  -4928.821960   -555.349625  4  7  5  73       
PG03   1826.014294 -15034.779218 -21974.246344   -141.650798  7  6  4  80       
PG04   1259.576227 -25587.364047  -6756.087540    152.453986  8  9  3  97       
PG05 -17467.134135   7713.094013  18321.767178   -142.253543  4  5  5 106       
PG06 -19513.187235    647.473178 -17988.835141    552.338523  3  7  6  94       
PG07  -5294.493188 -15424.288560  21361.435561     70.611359  1  5  4  99       
PG08   7481.700766 -19645.344142  15914.999787   -141.652916  5  5  5  89       
PG09  -6304.130204 -25704.658322   1799.123332    -62.972263  5  2  6  66       
PG10  24032.002872  11267.778698   3400.973888    -52.909593  3  5  3  86       
PG11 -23005.765534  11143.427816  -7098.234052   -362.953041  8  8  6  99       
PG12  -6798.034554  13683.415330 -21998.641509   -423.371998  6  5  4  91       
PG13 -13109.502086  11681.641471  19667.112696    571.082150  7  6  5 100       
PG14 -22073.448085 -13632.727921   6114.195359    181.307793  5  4  6 105       
PG15  -4548.260745  21212.634266  14680.460372     76.363316  5  6  2  90       
PG16  21526.129391  -1696.516376  15451.176578   -455.894774  4  6  2  78       
PG17 -12772.653691 -16378.061262 -16053.980883    723.660203  5  5  3  69       
PG18   6658.672131  13623.135578  21794.378722   -413.280712  4  7  7 111       
PG19 -14723.034943  -8341.376100 -20757.507400    369.871495  4  2  5  86       
PG20 -24538.350657   2482.346101   9641.098054    412.511721  4  3  5 116       
PG21  17144.382731 -19405.457043  -2445.377027    149.143655  4  7  8  93       
PG22 -24029.925589 -10884.852174   -740.146830    124.156277  2  5  5  94       
PG23  16046.268883  15673.771270  14363.446490     66.762695  3  6  4  95       
PG24 -13053.583680  21524.714684  -8138.084614   -316.043413  6  4  3  94       
PG25   8631.074324  17201.915965 -18730.934843    467.116974  4  6  5  81       
PG26  25921.613660   3120.339282   5686.847198    229.072284  4  6  3  74       
PG27  13566.858762  -7569.071625  21234.185538    -37.466744  5  5  5  85       
PG28  18668.513534   1007.237578 -18888.469439     -8.185267  6  6  3  94       
PG29   4045.114715  26083.547227   2346.887690   -609.146494  4  6  4  86       
PG30 -14420.825983  -8121.532701  20937.200159   -488.844464  6     2 102       
PG31  22871.947233  -7365.186508 -11952.636798   -223.199607  5  7  3  83       
PG32  15104.234030  11910.723303 -18221.351338   -555.952987  3  6  4  89       
*  2023  9 11  4 15  0.00000000
PG01  12381.676498 -20858.913352 -10746.878954    165.793540  7  8  3 110       
PG02  16458.153623 -20564.885269  -2086.404245   -555.345815  3  7  6  63       
PG03   4188.323686 -14255.075567 -22161.401335   -141.632691  7  6  4  76       
PG04   1650.280422 -24711.009095  -9418.854516    152.464036  7  9  3  93       
PG05 -19380.356207   7028.903873  16619.638770   -142.254734  4  5  5  92       
PG06 -17949.712440   -829.738713 -19529.543608    552.332545  3  7  5  86       
PG07  -3499.616587 -16888.435818  20548.690699     70.601830     5  4  91       
PG08   8114.559159 -17788.675728  17715.650509   -141.654279  5  5  5  89       
PG09  -6052.036541 -25815.520286  -1051.473568    -62.963068  5  3  6  48       
PG10  23482.078086  11264.615410   6206.466128    -52.911620  2  5  3  83       
PG11 -22394.349542  10361.872294  -9744.332372   -362.969492  7  8  7 109       
PG12  -9049.091107  12731.850587 -21748.212712   -423.376006  6  5  4 100       
PG13 -13355.461273   9338.984068  20733.630484    571.086117  7  6  5  89       
PG14 -21188.598619 -13589.357763   8760.172044    181.318068  5  4  6  97       
PG15  -5422.556921  19526.335426  16564.944463     76.366479  5  7  3  93       
PG16  23000.242311   -876.784653  13329.955717   -455.889649  4  6  1  73       
PG17 -12847.472739 -18175.330670 -13971.502691    723.660025  5  6  3  48       
PG18   4758.571965  15186.225307  21236.321002   -413.292104  4  8  7 113       
PG19 -14869.577196 -10595.225821 -19610.685201    369.875943  4  3  5  71       
PG20 -25441.148061   2065.340693   7018.023075    412.510090  4  4  5 110       
PG21  17498.898045 -19308.628129    464.566630    149.143110  4  7  9  61       
PG22 -23893.489858 -11120.356659   2135.176572    124.149726  3  5  5  93       
PG23  14328.062675  15306.975545  16413.736529     66.767392  3  6  4  85       
PG24 -13812.033057  21836.944513  -5459.125426   -316.053056  6  4  3 103       
PG25   6546.694620  16655.961764 -20022.079471    467.118831  4  6  5  88       
PG26  26336.997956   3538.002770   2966.235633    229.070621  4  6  3  53       
PG27  14131.581211  -5123.743381  21625.395634    -37.472509  4  4  5  69       
PG28  17130.589031   2624.542539 -20149.693714     -8.189783  5  6  3  98       
PG29   3838.241078  26219.238015   -541.143219   -609.147152  4  6  3  80       
PG30 -12642.275120  -9735.201471  21372.727223   -488.841402  6  2  2  83       
PG31  21882.949419  -6279.887973 -14206.179735   -223.200261  5  7  3  74       
PG32  15383.766274  13909.901951 -16526.161277   -555.958541  4  6  4  88       
EOF
